[{"OBJECT_NAME":"QIANFAN-76","OBJECT_ID":"2025-046D","EPOCH":"2026-03-09T21:26:35.979072","MEAN_MOTION":13.51000746,"ECCENTRICITY":0.00119568,"INCLINATION":88.9752,"RA_OF_ASC_NODE":311.1248,"ARG_OF_PERICENTER":232.8157,"MEAN_ANOMALY":127.1903,"EPHEMERIS_TYPE":0,"CLASSIFICATION_TYPE":"U","NORAD_CAT_ID":63162,"ELEMENT_SET_NO":999,"REV_AT_EPOCH":5912,"BSTAR":0.00018455732,"MEAN_MOTION_DOT":1.31e-6,"MEAN_MOTION_DDOT":0},{"OBJECT_NAME":"COSMOS 970 DEB","OBJECT_ID":"1977-121CZ","EPOCH":"2026-03-01T02:52:00.329664","MEAN_MOTION":13.66349015,"ECCENTRICITY":0.01131029,"INCLINATION":65.857,"RA_OF_ASC_NODE":314.6004,"ARG_OF_PERICENTER":204.2637,"MEAN_ANOMALY":231.7037,"EPHEMERIS_TYPE":0,"CLASSIFICATION_TYPE":"U","NORAD_CAT_ID":64988,"ELEMENT_SET_NO":999,"REV_AT_EPOCH":12409,"BSTAR":0.00035879214,"MEAN_MOTION_DOT":2.32e-6,"MEAN_MOTION_DDOT":0}]
